      2.10          N: GNSS NAV DATA                        RINEX VERSION / TYPE
fic2rin                                 12/04/2020 00:17:41 PGM / RUN BY / DATE
                                                            END OF HEADER
10 20 12  3 10  0  0.0-7.237307727337e-06-8.981260180008e-12 0.000000000000e+00
    8.500000000000e+01-5.415625000000e+01 4.302322066126e-09 1.200871867442e+00
   -2.641230821609e-06 6.208870327100e-03 9.953975677490e-06 5.153672779083e+03
    3.816000000000e+05 4.097819328308e-08 7.281075937924e-01 1.117587089539e-07
    9.674692288053e-01 1.932187500000e+02-2.650003119998e+00-7.821754378894e-09
    2.810831368123e-10 1.000000000000e+00 2.134000000000e+03 0.000000000000e+00
    2.400000000000e+00 0.000000000000e+00 2.328306436539e-09 8.500000000000e+01
    3.744000000000e+05 4.000000000000e+00
 9 20 12  3 10  0  0.0-2.969522029161e-04-4.547473508865e-12 0.000000000000e+00
    1.020000000000e+02 1.184375000000e+01 5.039852787241e-09-4.664158265370e-01
    5.401670932770e-07 2.013183548115e-03 5.876645445824e-06 5.153598802567e+03
    3.816000000000e+05-3.911554813385e-08 1.761649732697e+00 2.980232238770e-08
    9.524806938898e-01 2.615937500000e+02 1.768191895033e+00-8.167840223330e-09
    1.842933908452e-10 1.000000000000e+00 2.134000000000e+03 0.000000000000e+00
    2.400000000000e+00 0.000000000000e+00 1.396983861923e-09 1.020000000000e+02
    3.744000000000e+05 4.000000000000e+00
22 20 12  3 10  0  0.0-7.210331968963e-04 5.798028723802e-12 0.000000000000e+00
    5.600000000000e+01-5.400000000000e+01 4.908418741057e-09-1.915442420471e+00
   -2.780929207802e-06 6.746305618435e-03 9.886920452118e-06 5.153670434952e+03
    3.816000000000e+05-1.154839992523e-07 6.378259773836e-01 1.527369022369e-07
    9.329159903013e-01 1.726875000000e+02-1.066264977233e+00-8.049978171046e-09
    2.928693420408e-10 1.000000000000e+00 2.134000000000e+03 0.000000000000e+00
    2.400000000000e+00 0.000000000000e+00-1.816079020500e-08 5.600000000000e+01
    3.744000000000e+05 4.000000000000e+00
28 20 12  3 10  0  0.0 6.479201838374e-04-4.774847184308e-12 0.000000000000e+00
    2.900000000000e+01 1.093437500000e+02 4.042311235631e-09-1.643878909812e-01
    5.638226866722e-06 1.830647001043e-02 8.102506399155e-06 5.153669727325e+03
    3.816000000000e+05-3.315508365631e-07-2.317604945137e+00-6.705522537231e-08
    9.752524752487e-01 2.359375000000e+02-1.369536034742e+00-8.032120284336e-09
    1.114332130692e-10 1.000000000000e+00 2.134000000000e+03 0.000000000000e+00
    2.400000000000e+00 0.000000000000e+00-1.117587089539e-08 2.900000000000e+01
    3.744000000000e+05 4.000000000000e+00
29 20 12  3 10  0  0.0-2.486510202289e-04-7.503331289627e-12 0.000000000000e+00
    8.200000000000e+01 4.500000000000e+01 4.206960951096e-09-8.926238280396e-01
    2.097338438034e-06 1.460705534555e-03 1.169741153717e-06 5.153717439651e+03
    3.816000000000e+05-9.313225746155e-09-1.292308966770e+00-2.980232238770e-08
    9.847307390393e-01 3.717500000000e+02 2.264762894362e+00-8.218913779320e-09
    1.807218135032e-10 1.000000000000e+00 2.134000000000e+03 0.000000000000e+00
    3.400000000000e+00 0.000000000000e+00-1.024454832077e-08 8.200000000000e+01
    3.744000000000e+05 4.000000000000e+00
27 20 12  3 10  0  0.0-2.687005326152e-05-8.185452315956e-12 0.000000000000e+00
    7.800000000000e+01 4.650000000000e+01 4.345895309698e-09-8.961931974725e-01
    2.533197402954e-06 8.595627732575e-03 1.452863216400e-06 5.153673940659e+03
    3.816000000000e+05 1.806765794754e-07-1.364058344265e+00 6.332993507385e-08
    9.769169556439e-01 3.581875000000e+02 5.654448986954e-01-8.245700609385e-09
    1.589351917173e-10 1.000000000000e+00 2.134000000000e+03 0.000000000000e+00
    2.400000000000e+00 0.000000000000e+00 1.862645149231e-09 7.800000000000e+01
    3.744000000000e+05 4.000000000000e+00
19 20 12  3 10  0  0.0-7.025431841612e-05 5.002220859751e-12 0.000000000000e+00
    9.000000000000e+01 2.781250000000e+01 4.300179119721e-09 1.569757709087e+00
    1.283362507820e-06 9.001382510178e-03 6.332993507385e-07 5.153605701447e+03
    3.816000000000e+05 1.210719347000e-07-1.259036486712e+00-2.346932888031e-07
    9.813443484740e-01 3.778750000000e+02 1.755056123921e+00-8.172126116141e-09
    1.325055193867e-10 1.000000000000e+00 2.134000000000e+03 0.000000000000e+00
    2.400000000000e+00 0.000000000000e+00-1.536682248116e-08 9.000000000000e+01
    3.744000000000e+05 4.000000000000e+00
12 20 12  3 10  0  0.0 3.204308450222e-05-5.229594535194e-12 0.000000000000e+00
    5.200000000000e+01 1.308437500000e+02 3.833731118861e-09 1.857214323723e+00
    6.662681698799e-06 8.046706789173e-03 9.139999747276e-06 5.153600980759e+03
    3.816000000000e+05-7.450580596924e-08-2.340043780970e+00-1.993030309677e-07
    9.760573669243e-01 2.089687500000e+02 1.167375833021e+00-7.677105496545e-09
    6.357407668690e-11 1.000000000000e+00 2.134000000000e+03 0.000000000000e+00
    2.400000000000e+00 0.000000000000e+00-1.257285475731e-08 5.200000000000e+01
    3.744000000000e+05 4.000000000000e+00
24 20 12  3 10  0  0.0 5.640555173159e-06-4.547473508865e-13 0.000000000000e+00
    1.140000000000e+02-4.437500000000e+00 5.026995108810e-09-2.764793791502e+00
   -2.644956111908e-07 1.061789761297e-02 8.136034011841e-06 5.153622531891e+03
    3.816000000000e+05 3.539025783539e-08 2.759662904774e+00-1.322478055954e-07
    9.358305298065e-01 2.088125000000e+02 7.045264968936e-01-7.986404094359e-09
   -4.668051585943e-10 1.000000000000e+00 2.134000000000e+03 0.000000000000e+00
    2.400000000000e+00 0.000000000000e+00 2.793967723846e-09 1.140000000000e+02
    3.744000000000e+05 4.000000000000e+00
26 20 12  3 10  0  0.0 8.570030331612e-06 5.911715561524e-12 0.000000000000e+00
    9.400000000000e+01 1.078750000000e+02 4.537331855227e-09 9.921663932213e-01
    5.705282092094e-06 5.378068191931e-03 8.948147296906e-06 5.153724344254e+03
    3.816000000000e+05-3.725290298462e-08-2.450154219124e+00 1.285225152969e-07
    9.444503532681e-01 1.965937500000e+02 2.179349307561e-01-8.006404927474e-09
   -1.135761594744e-10 1.000000000000e+00 2.134000000000e+03 0.000000000000e+00
    2.400000000000e+00 0.000000000000e+00 6.984919309616e-09 9.400000000000e+01
    3.744000000000e+05 4.000000000000e+00
13 20 12  3 10  0  0.0 7.112836465240e-05 3.979039320257e-12 0.000000000000e+00
    6.200000000000e+01 6.875000000000e-01 4.660194115791e-09-1.568971781218e+00
    4.284083843231e-08 4.849822609685e-03 5.761161446571e-06 5.153674749374e+03
    3.816000000000e+05 1.434236764908e-07 1.907575190826e+00 2.980232238770e-08
    9.674853560142e-01 2.727187500000e+02 1.048511935302e+00-7.899614764949e-09
    2.464388365953e-11 1.000000000000e+00 2.134000000000e+03 0.000000000000e+00
    2.400000000000e+00 0.000000000000e+00-1.164153218269e-08 6.200000000000e+01
    3.744000000000e+05 4.000000000000e+00
14 20 12  3 10  0  0.0 5.229050293565e-05 1.273292582482e-11 0.000000000000e+00
    2.100000000000e+02 1.172812500000e+02 4.276963866998e-09-3.064886460526e+00
    6.010755896568e-06 1.679513370618e-04 8.126720786095e-06 5.153741279602e+03
    3.816000000000e+05-7.450580596924e-09-2.364436952473e+00-1.117587089539e-08
    9.596105104181e-01 2.214062500000e+02 1.713133271746e+00-7.861756045124e-09
    3.071556514086e-11 1.000000000000e+00 2.134000000000e+03 0.000000000000e+00
    3.400000000000e+00 0.000000000000e+00-2.328306436539e-09 2.100000000000e+02
    3.744000000000e+05 4.000000000000e+00
18 20 12  3 10  0  0.0 3.285487182438e-04 4.206412995700e-12 0.000000000000e+00
    6.600000000000e+01-1.224062500000e+02 4.399826127562e-09-2.883902135517e+00
   -6.260350346565e-06 1.171854557469e-03 4.688277840614e-06 5.153708890915e+03
    3.816000000000e+05-5.587935447693e-09-2.931250550008e-01 2.607703208923e-08
    9.663764304630e-01 2.951250000000e+02 2.964413178085e+00-8.095694361023e-09
   -1.400058318049e-10 1.000000000000e+00 2.134000000000e+03 0.000000000000e+00
    2.400000000000e+00 0.000000000000e+00-8.381903171539e-09 5.780000000000e+02
    3.744000000000e+05 4.000000000000e+00
23 20 12  3 10  0  0.0 1.067724078894e-04 3.637978807092e-12 0.000000000000e+00
    8.700000000000e+01-6.506250000000e+01 4.304822170265e-09 3.134890556272e+00
   -3.291293978691e-06 1.104019465856e-03 1.033954322338e-05 5.153639097214e+03
    3.816000000000e+05 3.725290298462e-09 7.055623877227e-01 9.499490261078e-08
    9.624292960833e-01 1.815312500000e+02 2.174678177949e+00-7.765680614625e-09
    3.850160374634e-10 1.000000000000e+00 2.134000000000e+03 0.000000000000e+00
    2.400000000000e+00 0.000000000000e+00-8.381903171539e-09 8.550000000000e+02
    3.744300000000e+05 4.000000000000e+00
 9 20 12  3  9 59 44.0-2.969531342387e-04-4.547473508865e-12 0.000000000000e+00
    2.700000000000e+01 1.184375000000e+01 5.039495629507e-09-4.687508910247e-01
    5.401670932770e-07 2.013182849623e-03 5.876645445824e-06 5.153598808289e+03
    3.815840000000e+05-3.911554813385e-08 1.761649861434e+00 2.980232238770e-08
    9.524807026673e-01 2.615937500000e+02 1.768193096088e+00-8.167840223330e-09
    1.850077063136e-10 1.000000000000e+00 2.134000000000e+03 0.000000000000e+00
    2.400000000000e+00 0.000000000000e+00 1.396983861923e-09 2.700000000000e+01
    3.750900000000e+05 4.000000000000e+00
 9 20 12  3 11 59 44.0-2.969857305288e-04-4.547473508865e-12 0.000000000000e+00
    2.800000000000e+01 8.062500000000e+00 5.001636909682e-09 5.814497169489e-01
    3.315508365631e-07 2.014299039729e-03 6.221234798431e-06 5.153600931168e+03
    3.887840000000e+05-5.774199962616e-08 1.761591085774e+00 0.000000000000e+00
    9.524819768689e-01 2.546562500000e+02 1.768222114531e+00-8.160339910912e-09
    1.775073938955e-10 1.000000000000e+00 2.134000000000e+03 0.000000000000e+00
    2.400000000000e+00 0.000000000000e+00 1.396983861923e-09 2.800000000000e+01
    3.816000000000e+05 4.000000000000e+00
